OBJECT_NAME,OBJECT_ID,EPOCH,MEAN_MOTION,ECCENTRICITY,INCLINATION,RA_OF_ASC_NODE,ARG_OF_PERICENTER,MEAN_ANOMALY,EPHEMERIS_TYPE,CLASSIFICATION_TYPE,NORAD_CAT_ID,ELEMENT_SET_NO,REV_AT_EPOCH,BSTAR,MEAN_MOTION_DOT,MEAN_MOTION_DDOT
HODOYOSHI-4,2014-033B,2026-06-18T20:23:21.233184,14.88128843,.0022473,97.5446,354.5911,302.6102,57.2946,0,U,40011,999,64905,.6471E-4,.546E-5,0
DEIMOS-2,2014-033D,2026-06-18T20:35:19.086720,14.93727019,.0001358,97.5819,44.2876,52.5944,307.5400,0,U,40013,999,63797,.96619E-4,.968E-5,0
HODOYOSHI-3,2014-033F,2026-06-18T11:09:29.486304,14.85390737,.0032572,97.6418,332.4539,353.0921,6.9842,0,U,40015,999,64781,.95725E-4,.779E-5,0
SPOT 7,2014-034A,2026-06-18T19:48:27.140832,14.60959389,.0001236,98.0626,232.2749,92.1232,268.0111,0,U,40053,999,63737,.61958E-4,.258E-5,0
SKYSAT-B,2014-037D,2026-06-18T14:30:28.423296,14.88031001,.0004165,98.3840,128.6502,275.7139,84.3601,0,U,40072,999,64617,.11733E-3,.1016E-4,0
WORLDVIEW-3 (WV-3),2014-048A,2026-06-18T20:26:41.688096,14.85024224,.0000848,97.8567,244.6618,23.3181,336.8072,0,U,40115,999,64215,.82919E-4,.654E-5,0
GAOFEN-2,2014-049A,2026-06-18T20:46:22.759680,14.80898942,.0006261,98.0106,234.0712,220.4033,139.6715,0,U,40118,999,63948,.53543E-4,.36E-5,0
YAOGAN-21,2014-053A,2026-06-18T20:48:36.042912,15.26390962,.0009939,97.1467,210.0307,89.3387,270.8991,0,U,40143,999,65521,.17647E-3,.4527E-4,0
YAOGAN-22,2014-063A,2026-06-18T16:57:39.691296,13.15531011,.0006377,100.7726,321.0051,181.8744,178.2344,0,U,40275,999,56001,-.77509E-5,-.5E-6,0
ASNARO,2014-070A,2026-06-18T20:55:00.884928,15.19454265,.0005738,97.3449,245.9403,159.8630,200.2832,0,U,40298,999,64426,.26915E-3,.5642E-4,0
YAOGAN-24,2014-072A,2026-06-18T20:15:57.044736,14.76225266,.0012533,98.1497,307.1963,257.8357,102.1448,0,U,40310,999,62396,.95552E-4,.609E-5,0
CBERS 4,2014-079A,2026-06-18T20:23:13.591104,14.35508881,.0001784,98.3528,226.6290,62.5555,297.5812,0,U,40336,999,60419,-.52796E-5,-.57E-6,0
YAOGAN-26,2014-088A,2026-06-18T21:06:38.029248,15.47401610,.0005855,97.0645,170.0489,64.6297,295.5559,0,U,40362,999,63796,.24874E-3,.12657E-3,0
SMAP,2015-003A,2026-06-18T18:56:35.564064,14.63367725,.0001343,98.1276,176.8612,96.3627,263.7728,0,U,40376,999,60785,.70082E-4,.315E-5,0
KOMPSAT-3A,2015-014A,2026-06-18T21:59:05.345376,15.54060687,.0056666,97.6888,161.4048,168.2111,192.0484,0,U,40536,999,62208,.28772E-3,.19909E-3,0
SENTINEL-2A,2015-028A,2026-06-18T19:45:14.532768,14.30815727,.0001105,98.5684,244.6515,91.9647,268.1663,0,U,40697,999,57396,.57224E-4,.106E-5,0
GAOFEN-8,2015-030A,2026-06-18T20:02:55.853952,15.46004853,.0008861,97.6898,3.3040,180.4781,179.6460,0,U,40701,999,61170,.37743E-3,.18363E-3,0
CARBONITE 1 (CBNT-1),2015-032D,2026-06-18T19:13:43.960800,14.83593654,.0013081,97.6504,347.7996,292.4779,67.5050,0,U,40718,999,58958,.23478E-3,.1887E-4,0
YAOGAN-27,2015-040A,2026-06-18T20:28:24.409056,13.16071133,.0007719,100.1153,156.1637,206.1651,153.9073,0,U,40878,999,51788,.86097E-3,.285E-5,0
GAOFEN-9 01,2015-047A,2026-06-18T21:13:39.025344,14.82886637,.0028492,97.6280,205.5022,132.4840,227.8788,0,U,40894,999,58044,.10206E-3,.782E-5,0
YAOGAN-28,2015-064A,2026-06-18T19:54:30.919392,15.27437841,.0010791,97.3083,308.0574,177.5811,182.5483,0,U,41026,999,59093,.19675E-3,.5218E-4,0
YAOGAN-29,2015-069A,2026-06-18T20:44:53.899008,14.83086200,.000257,98.0021,198.5003,52.1407,308.0038,0,U,41038,999,57087,.98692E-5,.26E-6,0
KENT RIDGE 1,2015-077B,2026-06-18T20:47:06.307008,15.23140783,.0008248,14.9792,253.5041,262.3593,97.5792,0,U,41167,999,58135,.10622E-3,.3348E-4,0
GAOFEN-4,2015-083A,2026-06-18T15:08:05.976672,1.00268207,.0004364,0.3622,83.8351,113.5197,42.2100,0,U,41194,999,3854,0,-.341E-5,0
JASON-3,2016-002A,2026-06-18T20:48:03.483072,12.87628077,.00085,66.0404,122.3039,272.7191,87.2854,0,U,41240,999,48746,.58224E-4,-.47E-6,0
SENTINEL-3A,2016-011A,2026-06-18T19:54:32.224032,14.26733082,.0001414,98.6249,237.1899,101.0558,259.0781,0,U,41335,999,53829,.55656E-4,.91E-6,0
ZIYUAN 3-02 (ZY 3-02),2016-033A,2026-06-18T21:35:42.567936,15.21192893,.0012375,97.3834,245.6423,285.0307,74.9559,0,U,41556,999,55824,.20259E-3,.4457E-4,0
CARTOSAT-2C,2016-040A,2026-06-18T20:08:02.040864,15.19200636,.0010043,97.4475,229.7951,125.8640,234.3529,0,U,41599,999,55396,.13694E-3,.2817E-4,0
SKYSAT-C1,2016-040C,2026-06-18T20:16:20.930016,15.36323464,.0003333,96.9556,201.4750,55.6448,304.5112,0,U,41601,999,55812,.20061E-3,.7031E-4,0
LAPAN-A3,2016-040E,2026-06-18T19:44:57.630336,15.33113460,.0010698,97.1489,165.9148,20.3292,339.8374,0,U,41603,999,55506,.90349E-4,.2819E-4,0
GAOFEN-3,2016-049A,2026-06-18T21:18:26.369280,14.42215081,.0001433,98.4006,177.6482,99.2969,260.8383,0,U,41727,999,51889,-.40719E-4,-.178E-5,0
