HODOYOSHI-4             
1 40011U 14033B   26169.84955131  .00000546  00000+0  64710-4 0  9993
2 40011  97.5446 354.5911 0022473 302.6102  57.2946 14.88128843649057
DEIMOS-2                
1 40013U 14033D   26169.85785980  .00000968  00000+0  96619-4 0  9990
2 40013  97.5819  44.2876 0001358  52.5944 307.5400 14.93727019637970
HODOYOSHI-3             
1 40015U 14033F   26169.46492461  .00000779  00000+0  95725-4 0  9995
2 40015  97.6418 332.4539 0032572 353.0921   6.9842 14.85390737647810
SPOT 7                  
1 40053U 14034A   26169.82531413  .00000258  00000+0  61958-4 0  9992
2 40053  98.0626 232.2749 0001236  92.1232 268.0111 14.60959389637374
SKYSAT-B                
1 40072U 14037D   26169.60449564  .00001016  00000+0  11733-3 0  9995
2 40072  98.3840 128.6502 0004165 275.7139  84.3601 14.88031001646173
WORLDVIEW-3 (WV-3)      
1 40115U 14048A   26169.85187139  .00000654  00000+0  82919-4 0  9991
2 40115  97.8567 244.6618 0000848  23.3181 336.8072 14.85024224642153
GAOFEN-2                
1 40118U 14049A   26169.86554120  .00000360  00000+0  53543-4 0  9999
2 40118  98.0106 234.0712 0006261 220.4033 139.6715 14.80898942639483
YAOGAN-21               
1 40143U 14053A   26169.86708383  .00004527  00000+0  17647-3 0  9997
2 40143  97.1467 210.0307 0009939  89.3387 270.8991 15.26390962655217
YAOGAN-22               
1 40275U 14063A   26169.70670939 -.00000050  00000+0 -77509-5 0  9996
2 40275 100.7726 321.0051 0006377 181.8744 178.2344 13.15531011560013
ASNARO                  
1 40298U 14070A   26169.87153802  .00005642  00000+0  26915-3 0  9995
2 40298  97.3449 245.9403 0005738 159.8630 200.2832 15.19454265644264
YAOGAN-24               
1 40310U 14072A   26169.84441024  .00000609  00000+0  95552-4 0  9997
2 40310  98.1497 307.1963 0012533 257.8357 102.1448 14.76225266623965
CBERS 4                 
1 40336U 14079A   26169.84946286 -.00000057  00000+0 -52796-5 0  9995
2 40336  98.3528 226.6290 0001784  62.5555 297.5812 14.35508881604195
YAOGAN-26               
1 40362U 14088A   26169.87960682  .00012657  00000+0  24874-3 0  9994
2 40362  97.0645 170.0489 0005855  64.6297 295.5559 15.47401610637964
SMAP                    
1 40376U 15003A   26169.78930051  .00000315  00000+0  70082-4 0  9995
2 40376  98.1276 176.8612 0001343  96.3627 263.7728 14.63367725607855
KOMPSAT-3A              
1 40536U 15014A   26169.91603409  .00019909  00000+0  28772-3 0  9991
2 40536  97.6888 161.4048 0056666 168.2111 192.0484 15.54060687622087
SENTINEL-2A             
1 40697U 15028A   26169.82308487  .00000106  00000+0  57224-4 0  9996
2 40697  98.5684 244.6515 0001105  91.9647 268.1663 14.30815727573968
GAOFEN-8                
1 40701U 15030A   26169.83536868  .00018363  00000+0  37743-3 0  9999
2 40701  97.6898   3.3040 0008861 180.4781 179.6460 15.46004853611707
CARBONITE 1 (CBNT-1)    
1 40718U 15032D   26169.80120325  .00001887  00000+0  23478-3 0  9996
2 40718  97.6504 347.7996 0013081 292.4779  67.5050 14.83593654589587
YAOGAN-27               
1 40878U 15040A   26169.85306029  .00000285  00000+0  86097-3 0  9991
2 40878 100.1153 156.1637 0007719 206.1651 153.9073 13.16071133517887
GAOFEN-9 01             
1 40894U 15047A   26169.88447946  .00000782  00000+0  10206-3 0  9994
2 40894  97.6280 205.5022 0028492 132.4840 227.8788 14.82886637580448
YAOGAN-28               
1 41026U 15064A   26169.82952453  .00005218  00000+0  19675-3 0  9997
2 41026  97.3083 308.0574 0010791 177.5811 182.5483 15.27437841590939
YAOGAN-29               
1 41038U 15069A   26169.86451272  .00000026  00000+0  98692-5 0  9992
2 41038  98.0021 198.5003 0002570  52.1407 308.0038 14.83086200570878
KENT RIDGE 1            
1 41167U 15077B   26169.86604522  .00003348  00000+0  10622-3 0  9997
2 41167  14.9792 253.5041 0008248 262.3593  97.5792 15.23140783581350
GAOFEN-4                
1 41194U 15083A   26169.63062473 -.00000341  00000+0  00000+0 0  9998
2 41194   0.3622  83.8351 0004364 113.5197  42.2100  1.00268207 38541
JASON-3                 
1 41240U 16002A   26169.86670698 -.00000047  00000+0  58224-4 0  9990
2 41240  66.0404 122.3039 0008500 272.7191  87.2854 12.87628077487466
SENTINEL-3A             
1 41335U 16011A   26169.82953963  .00000091  00000+0  55656-4 0  9994
2 41335  98.6249 237.1899 0001414 101.0558 259.0781 14.26733082538290
ZIYUAN 3-02 (ZY 3-02)   
1 41556U 16033A   26169.89979824  .00004457  00000+0  20259-3 0  9994
2 41556  97.3834 245.6423 0012375 285.0307  74.9559 15.21192893558240
CARTOSAT-2C             
1 41599U 16040A   26169.83891251  .00002817  00000+0  13694-3 0  9993
2 41599  97.4475 229.7951 0010043 125.8640 234.3529 15.19200636553964
SKYSAT-C1               
1 41601U 16040C   26169.84468669  .00007031  00000+0  20061-3 0  9990
2 41601  96.9556 201.4750 0003333  55.6448 304.5112 15.36323464558121
LAPAN-A3                
1 41603U 16040E   26169.82288924  .00002819  00000+0  90349-4 0  9990
2 41603  97.1489 165.9148 0010698  20.3292 339.8374 15.33113460555065
GAOFEN-3                
1 41727U 16049A   26169.88780520 -.00000178  00000+0 -40719-4 0  9995
2 41727  98.4006 177.6482 0001433  99.2969 260.8383 14.42215081518899
